{
  "type": "FeatureCollection",
  "features": [
    {
      "type": "Feature",
      "properties": {
        "norad_id": 44333,
        "name": "AT&T T-16",
        "group": "intelsat",
        "lat": -0.015634890273986585,
        "lon": -119.42199147012502,
        "alt_km": 35786.527058582054,
        "timestamp": "2025-12-20T16:47:35.959165+00:00",
        "meta_object_name": "AT&T T-16",
        "meta_object_id": "2019-034A",
        "meta_epoch": "2025-12-20T05:59:17.333952",
        "meta_mean_motion": 1.00272894,
        "meta_eccentricity": 9.98e-05,
        "meta_inclination": 0.0237,
        "meta_ra_of_asc_node": 62.8934,
        "meta_arg_of_pericenter": 77.7615,
        "meta_mean_anomaly": 297.398,
        "meta_ephemeris_type": 0,
        "meta_classification_type": "U",
        "meta_norad_cat_id": 44333,
        "meta_element_set_no": 999,
        "meta_rev_at_epoch": 2383,
        "meta_bstar": 0,
        "meta_mean_motion_dot": -9.2e-07,
        "meta_mean_motion_ddot": 0,
        "tle_line1": "1 44333U 19034A   25354.24950618 -.00000092  00000+0  00000+0 0  9998",
        "tle_line2": "2 44333   0.0237  62.8934 0000998  77.7615 297.3980  1.00272894 23839"
      },
      "geometry": {
        "type": "Point",
        "coordinates": [
          -119.42199147012502,
          -0.015634890273986585
        ]
      }
    },
    {
      "type": "Feature",
      "properties": {
        "norad_id": 44476,
        "name": "INTELSAT 39 (IS-39)",
        "group": "intelsat",
        "lat": 0.037369201334168434,
        "lon": 43.3444724899477,
        "alt_km": 35786.6695260885,
        "timestamp": "2025-12-20T16:47:35.959177+00:00",
        "meta_object_name": "INTELSAT 39 (IS-39)",
        "meta_object_id": "2019-049B",
        "meta_epoch": "2025-12-20T10:05:49.115904",
        "meta_mean_motion": 1.002697,
        "meta_eccentricity": 0.0001066,
        "meta_inclination": 0.025,
        "meta_ra_of_asc_node": 358.625,
        "meta_arg_of_pericenter": 135.3265,
        "meta_mean_anomaly": 168.6966,
        "meta_ephemeris_type": 0,
        "meta_classification_type": "U",
        "meta_norad_cat_id": 44476,
        "meta_element_set_no": 999,
        "meta_rev_at_epoch": 2333,
        "meta_bstar": 0,
        "meta_mean_motion_dot": 0,
        "meta_mean_motion_ddot": 0,
        "tle_line1": "1 44476U 19049B   25354.42070736  .00000000  00000+0  00000+0 0  9994",
        "tle_line2": "2 44476   0.0250 358.6250 0001066 135.3265 168.6966  1.00269700 23339"
      },
      "geometry": {
        "type": "Point",
        "coordinates": [
          43.3444724899477,
          0.037369201334168434
        ]
      }
    },
    {
      "type": "Feature",
      "properties": {
        "norad_id": 46114,
        "name": "GALAXY 30 (G-30)",
        "group": "intelsat",
        "lat": -0.028826306819601178,
        "lon": -143.58014435855418,
        "alt_km": 35780.740608641776,
        "timestamp": "2025-12-20T16:47:35.959189+00:00",
        "meta_object_name": "GALAXY 30 (G-30)",
        "meta_object_id": "2020-056C",
        "meta_epoch": "2025-12-20T10:15:38.712096",
        "meta_mean_motion": 1.00273232,
        "meta_eccentricity": 0.0002027,
        "meta_inclination": 0.0119,
        "meta_ra_of_asc_node": 340.3742,
        "meta_arg_of_pericenter": 291.1216,
        "meta_mean_anomaly": 206.6944,
        "meta_ephemeris_type": 0,
        "meta_classification_type": "U",
        "meta_norad_cat_id": 46114,
        "meta_element_set_no": 999,
        "meta_rev_at_epoch": 1950,
        "meta_bstar": 0,
        "meta_mean_motion_dot": 6e-07,
        "meta_mean_motion_ddot": 0,
        "tle_line1": "1 46114U 20056C   25354.42753139  .00000060  00000+0  00000+0 0  9996",
        "tle_line2": "2 46114   0.0119 340.3742 0002027 291.1216 206.6944  1.00273232 19501"
      },
      "geometry": {
        "type": "Point",
        "coordinates": [
          -143.58014435855418,
          -0.028826306819601178
        ]
      }
    },
    {
      "type": "Feature",
      "properties": {
        "norad_id": 54026,
        "name": "GALAXY 33 (G-33)",
        "group": "intelsat",
        "lat": -0.003687139877375766,
        "lon": -151.5936384653715,
        "alt_km": 35782.956004007356,
        "timestamp": "2025-12-20T16:47:35.959201+00:00",
        "meta_object_name": "GALAXY 33 (G-33)",
        "meta_object_id": "2022-128A",
        "meta_epoch": "2025-12-20T10:56:02.827392",
        "meta_mean_motion": 1.00271265,
        "meta_eccentricity": 0.0001552,
        "meta_inclination": 0.0157,
        "meta_ra_of_asc_node": 41.9157,
        "meta_arg_of_pericenter": 226.869,
        "meta_mean_anomaly": 211.5183,
        "meta_ephemeris_type": 0,
        "meta_classification_type": "U",
        "meta_norad_cat_id": 54026,
        "meta_element_set_no": 999,
        "meta_rev_at_epoch": 1195,
        "meta_bstar": 0,
        "meta_mean_motion_dot": 1.03e-06,
        "meta_mean_motion_ddot": 0,
        "tle_line1": "1 54026U 22128A   25354.45558828  .00000103  00000+0  00000+0 0  9998",
        "tle_line2": "2 54026   0.0157  41.9157 0001552 226.8690 211.5183  1.00271265 11956"
      },
      "geometry": {
        "type": "Point",
        "coordinates": [
          -151.5936384653715,
          -0.003687139877375766
        ]
      }
    },
    {
      "type": "Feature",
      "properties": {
        "norad_id": 54027,
        "name": "GALAXY 34 (G-34)",
        "group": "intelsat",
        "lat": -0.022932534306093176,
        "lon": -147.5423130376228,
        "alt_km": 35782.47140079669,
        "timestamp": "2025-12-20T16:47:35.959212+00:00",
        "meta_object_name": "GALAXY 34 (G-34)",
        "meta_object_id": "2022-128B",
        "meta_epoch": "2025-12-20T09:17:38.654880",
        "meta_mean_motion": 1.00267861,
        "meta_eccentricity": 0.000178,
        "meta_inclination": 0.0228,
        "meta_ra_of_asc_node": 9.5689,
        "meta_arg_of_pericenter": 254.4023,
        "meta_mean_anomaly": 195.7195,
        "meta_ephemeris_type": 0,
        "meta_classification_type": "U",
        "meta_norad_cat_id": 54027,
        "meta_element_set_no": 999,
        "meta_rev_at_epoch": 1212,
        "meta_bstar": 0,
        "meta_mean_motion_dot": 0,
        "meta_mean_motion_ddot": 0,
        "tle_line1": "1 54027U 22128B   25354.38725295  .00000000  00000+0  00000+0 0  9991",
        "tle_line2": "2 54027   0.0228   9.5689 0001780 254.4023 195.7195  1.00267861 12129"
      },
      "geometry": {
        "type": "Point",
        "coordinates": [
          -147.5423130376228,
          -0.022932534306093176
        ]
      }
    },
    {
      "type": "Feature",
      "properties": {
        "norad_id": 54243,
        "name": "GALAXY 31 (G-31)",
        "group": "intelsat",
        "lat": -0.0025824616159769507,
        "lon": -139.5922029143178,
        "alt_km": 35783.16639875101,
        "timestamp": "2025-12-20T16:47:35.959223+00:00",
        "meta_object_name": "GALAXY 31 (G-31)",
        "meta_object_id": "2022-153A",
        "meta_epoch": "2025-12-20T08:25:42.828096",
        "meta_mean_motion": 1.00271098,
        "meta_eccentricity": 0.0001373,
        "meta_inclination": 0.0188,
        "meta_ra_of_asc_node": 82.0185,
        "meta_arg_of_pericenter": 196.3951,
        "meta_mean_anomaly": 176.2028,
        "meta_ephemeris_type": 0,
        "meta_classification_type": "U",
        "meta_norad_cat_id": 54243,
        "meta_element_set_no": 999,
        "meta_rev_at_epoch": 534,
        "meta_bstar": 0,
        "meta_mean_motion_dot": 3.7e-07,
        "meta_mean_motion_ddot": 0,
        "tle_line1": "1 54243U 22153A   25354.35119014  .00000037  00000+0  00000+0 0  9992",
        "tle_line2": "2 54243   0.0188  82.0185 0001373 196.3951 176.2028  1.00271098  5345"
      },
      "geometry": {
        "type": "Point",
        "coordinates": [
          -139.5922029143178,
          -0.0025824616159769507
        ]
      }
    },
    {
      "type": "Feature",
      "properties": {
        "norad_id": 54244,
        "name": "GALAXY 32 (G-32)",
        "group": "intelsat",
        "lat": -0.0357057224533384,
        "lon": -109.59457062943888,
        "alt_km": 35783.256317492305,
        "timestamp": "2025-12-20T16:47:35.959235+00:00",
        "meta_object_name": "GALAXY 32 (G-32)",
        "meta_object_id": "2022-153B",
        "meta_epoch": "2025-12-19T12:21:45.204192",
        "meta_mean_motion": 1.00271304,
        "meta_eccentricity": 0.0001932,
        "meta_inclination": 0.0112,
        "meta_ra_of_asc_node": 8.1777,
        "meta_arg_of_pericenter": 310.6888,
        "meta_mean_anomaly": 223.9419,
        "meta_ephemeris_type": 0,
        "meta_classification_type": "U",
        "meta_norad_cat_id": 54244,
        "meta_element_set_no": 999,
        "meta_rev_at_epoch": 1134,
        "meta_bstar": 0,
        "meta_mean_motion_dot": -1.5e-06,
        "meta_mean_motion_ddot": 0,
        "tle_line1": "1 54244U 22153B   25353.51510653 -.00000150  00000+0  00000+0 0  9991",
        "tle_line2": "2 54244   0.0112   8.1777 0001932 310.6888 223.9419  1.00271304 11341"
      },
      "geometry": {
        "type": "Point",
        "coordinates": [
          -109.59457062943888,
          -0.0357057224533384
        ]
      }
    }
  ]
}